{
"type": "FeatureCollection",
"name": "point",
"crs": { "type": "name", "properties": { "name": "urn:ogc:def:crs:OGC:1.3:CRS84" } },
"features": [
{ "type": "Feature", "properties": { "code": "N183", "name": "SAN PAOLO FS", "link_ita": "https://visitul.it/now/n183-san-paolo-fs/", "link_eng": "https://visitul.it/en/now/n183-san-paolo-fs/", "current_status": "procedure in progress", "current_status_since": "2022-12-01", "timeline_summary": "Dec 2022: procedure in progress", "first_recorded_period": "december_2022", "last_recorded_period": "december_2025", "status_change_count": 0, "periods_in_current_status": 4, "july_2020": "", "october_2021": "", "july_2022": "", "december_2022": "procedure in progress", "april_2024": "procedure in progress", "february_2025": "procedure in progress", "december_2025": "procedure in progress", "notes": null, "osm_class": "", "primary_class": "", "worldcover_label": "built-up", "cadastral_ref": "L219_134300.STRADA019", "cadastral_area_m2": 13797.319739171842 }, "geometry": { "type": "Point", "coordinates": [ 7.636624076374535, 45.054899958210235, 0.0 ] } },
{ "type": "Feature", "properties": { "code": "N184", "name": "DORA FS", "link_ita": "https://visitul.it/now/n184-dora-fs/", "link_eng": "https://visitul.it/en/now/n184-dora-fs/", "current_status": "procedure in progress", "current_status_since": "2022-12-01", "timeline_summary": "Dec 2022: procedure in progress", "first_recorded_period": "december_2022", "last_recorded_period": "december_2025", "status_change_count": 0, "periods_in_current_status": 4, "july_2020": "", "october_2021": "", "july_2022": "", "december_2022": "procedure in progress", "april_2024": "procedure in progress", "february_2025": "procedure in progress", "december_2025": "procedure in progress", "notes": null, "osm_class": "", "primary_class": "", "worldcover_label": "built-up", "cadastral_ref": "L219_115100.180", "cadastral_area_m2": 3693.7861317510096 }, "geometry": { "type": "Point", "coordinates": [ 7.677360439366877, 45.088269583219478, 0.0 ] } },
{ "type": "Feature", "properties": { "code": "N185", "name": "ZAPPATA FS", "link_ita": "https://visitul.it/now/n184-zappata-fs/", "link_eng": "https://visitul.it/en/now/n185-zappata-fs/", "current_status": "procedure in progress", "current_status_since": "2022-12-01", "timeline_summary": "Dec 2022: procedure in progress", "first_recorded_period": "december_2022", "last_recorded_period": "december_2025", "status_change_count": 0, "periods_in_current_status": 4, "july_2020": "", "october_2021": "", "july_2022": "", "december_2022": "procedure in progress", "april_2024": "procedure in progress", "february_2025": "procedure in progress", "december_2025": "procedure in progress", "notes": null, "osm_class": "", "primary_class": "", "worldcover_label": "built-up", "cadastral_ref": "L219_134700.91", "cadastral_area_m2": 118.43165152908536 }, "geometry": { "type": "Point", "coordinates": [ 7.660397917716454, 45.049855390858809, 0.0 ] } },
{ "type": "Feature", "properties": { "code": "N186", "name": "QUAGLIA GRU FS", "link_ita": "https://visitul.it/now/n186-quaglia-gru-fs/", "link_eng": "https://visitul.it/en/now/n186-quaglia-gru-fs/", "current_status": "under construction", "current_status_since": "2025-12-01", "timeline_summary": "Dec 2022: procedure in progress → Dec 2025: under construction", "first_recorded_period": "december_2022", "last_recorded_period": "december_2025", "status_change_count": 1, "periods_in_current_status": 1, "july_2020": "", "october_2021": "", "july_2022": "", "december_2022": "procedure in progress", "april_2024": "procedure in progress", "february_2025": "procedure in progress", "december_2025": "under construction", "notes": null, "osm_class": "construction", "primary_class": "construction", "worldcover_label": "tree cover", "cadastral_ref": "E216_001300.834", "cadastral_area_m2": 1091.6735391469606 }, "geometry": { "type": "Point", "coordinates": [ 7.617431091919864, 45.058881434274177, 0.0 ] } },
{ "type": "Feature", "properties": { "code": "N187", "name": "SAN LUIGI FS", "link_ita": "https://visitul.it/now/n187-san-luigi-fs/", "link_eng": "https://visitul.it/en/now/n187-san-luigi-fs/", "current_status": "under construction", "current_status_since": "2024-04-01", "timeline_summary": "Dec 2022: procedure in progress → Apr 2024: under construction", "first_recorded_period": "december_2022", "last_recorded_period": "december_2025", "status_change_count": 1, "periods_in_current_status": 3, "july_2020": "", "october_2021": "", "july_2022": "", "december_2022": "procedure in progress", "april_2024": "under construction", "february_2025": "under construction", "december_2025": "under construction", "notes": null, "osm_class": "railway", "primary_class": "railway", "worldcover_label": "tree cover", "cadastral_ref": "G087_000700.92", "cadastral_area_m2": 38479.066370061868 }, "geometry": { "type": "Point", "coordinates": [ 7.559690684324442, 45.0236997197973, 0.0 ] } }
]
}
